OBJECT_NAME,OBJECT_ID,EPOCH,MEAN_MOTION,ECCENTRICITY,INCLINATION,RA_OF_ASC_NODE,ARG_OF_PERICENTER,MEAN_ANOMALY,EPHEMERIS_TYPE,CLASSIFICATION_TYPE,NORAD_CAT_ID,ELEMENT_SET_NO,REV_AT_EPOCH,BSTAR,MEAN_MOTION_DOT,MEAN_MOTION_DDOT
CUTE-1 (CO-55),2003-031E,2026-06-03T13:11:18.293856,14.24327019,.00086909,98.6736,163.2800,219.4250,140.6297,0,U,27844,999,18973,.16425086E-3,.336E-5,0
CUBESAT XI-IV (CO-57),2003-031J,2026-06-01T00:01:20.276832,14.23611465,.00082889,98.6768,160.4891,248.3946,111.6350,0,U,27848,999,18907,.14575851E-3,.288E-5,0
CUBESAT XI-V,2005-043F,2026-06-01T08:48:31.503456,14.72584583,.00128374,98.2967,307.6587,254.1655,105.8136,0,U,28895,999,9942,.27161207E-3,.1677E-4,0
CUTE-1.7+APD II (CO-65),2008-021C,2026-06-04T18:51:20.021760,15.09327277,.00106294,97.8272,136.9481,75.0283,285.2121,0,U,32785,999,98332,.34664677E-3,.547E-4,0
CANX-2,2008-021H,2026-06-04T17:26:55.868064,15.05525197,.00123847,97.8638,135.2647,87.4446,272.8198,0,U,32790,999,98293,.30187993E-3,.4286E-4,0
SEEDS II (CO-66),2008-021J,2026-06-03T13:18:22.326048,15.32257900,.00029913,97.7515,151.8069,42.0128,318.1342,0,U,32791,999,98520,.64842083E-3,.20146E-3,0
SWISSCUBE,2009-051B,2026-06-03T06:42:55.096704,14.62453382,.00053989,98.4045,61.9256,254.9932,105.0671,0,U,35932,999,88712,.25059349E-3,.122E-4,0
BEESAT-1,2009-051C,2026-06-03T14:58:59.003328,14.61697093,.00039096,98.3973,61.9398,272.0464,88.0289,0,U,35933,999,88720,.20663001E-3,.98E-5,0
ITUPSAT1,2009-051E,2026-06-04T16:47:20.224032,14.60421767,.00061344,98.4056,62.2366,280.9538,79.0971,0,U,35935,999,88691,.20796282E-3,.958E-5,0
TISAT 1,2010-035E,2026-06-03T07:55:54.974496,15.31153617,.00005682,98.0708,99.6565,17.2069,342.9189,0,U,36799,999,86558,.76310205E-3,.22924E-3,0
AEROCUBE 4.5A,2012-048K,2026-06-04T02:09:01.038240,15.86796703,.0019145,64.6273,74.5139,214.1007,145.8922,0,U,38767,999,37057,.1192E-2,.309658E-2,.40838E-4
STRAND-1,2013-009E,2026-06-04T00:52:51.152160,14.37155097,.00073872,98.3918,335.5952,270.6143,89.4198,0,U,39090,999,69517,.11291857E-3,.293E-5,0
BRITE-AUSTRIA,2013-009F,2026-06-04T17:46:13.291104,14.36537037,.00089688,98.3992,335.4846,278.5862,81.4309,0,U,39091,999,69526,.84089819E-4,.204E-5,0
NEE-01 PEGASO,2013-018B,2026-06-03T11:09:53.669664,14.93586684,.00121772,98.1207,298.1637,203.9081,156.1574,0,U,39151,999,70865,.30779545E-3,.319E-4,0
POPACS 2,2013-055E,2026-06-03T08:26:41.104896,14.90877898,.04173126,80.9903,160.0266,238.2636,117.7281,0,U,39269,999,66115,.20632521E-3,.12054E-3,0
POPACS 3,2013-055F,2026-06-04T16:20:37.905792,14.55869298,.05531867,81.0024,242.7420,108.0391,258.1868,0,U,39270,999,63673,.2918196E-3,.12377E-3,0
ZACUBE-1 (TSHEPISOSAT),2013-066B,2026-06-03T22:37:15.794688,15.01095965,.00399036,97.8107,117.2078,294.5657,65.1411,0,U,39417,999,67874,.35148087E-3,.451E-4,0
WNISAT-1,2013-066H,2026-06-03T23:11:23.012448,14.58041901,.01616767,97.7188,305.0620,273.5822,84.6901,0,U,39423,999,66480,.1358822E-3,.696E-5,0
TRITON-1,2013-066M,2026-06-04T22:29:36.786048,14.81658709,.00883983,97.8258,66.0234,274.5745,84.5375,0,U,39427,999,67227,.220319E-3,.1796E-4,0
GOMX-1,2013-066Q,2026-06-04T22:17:38.503104,14.69412184,.01300169,97.6488,357.1650,116.4594,245.0019,0,U,39430,999,66811,.3815542E-3,.2521E-4,0
CUBEBUG-2 (LO-74),2013-066AA,2026-06-03T07:55:56.668800,14.93641817,.00594532,97.8904,103.2522,73.9566,286.8190,0,U,39440,999,67492,.47122985E-3,.5093E-4,0
NEE-02 KRYSAOR,2013-066AB,2026-06-04T18:10:04.770624,14.86564783,.00676932,97.8893,95.0615,109.9850,250.8672,0,U,39441,999,67435,.27224659E-3,.2457E-4,0
FUNCUBE-1 (AO-73),2013-066AE,2026-06-04T14:14:41.227008,15.09331351,.00346471,97.8278,126.7780,245.3456,114.4162,0,U,39444,999,67776,.50552791E-3,.8112E-4,0
UWE-3,2013-066AG,2026-06-04T15:34:58.249920,14.96922367,.00493262,97.8702,111.6406,3.6109,356.5458,0,U,39446,999,67570,.40572144E-3,.4713E-4,0
BRITE-CA1 (TORONTO),2014-033L,2026-06-04T06:20:25.108800,14.72658739,.00776648,97.9724,284.4316,319.0531,40.4860,0,U,40020,999,64031,.13835154E-3,.87E-5,0
DUCHIFAT-1,2014-033M,2026-06-04T16:02:21.168384,15.62101054,.00048528,98.0472,213.0954,139.0185,221.1436,0,U,40021,999,65379,.10760804E-2,.95076E-3,0
NANOSATC-BR1,2014-033Q,2026-06-04T01:41:34.896192,15.31019931,.00030394,98.0721,186.3011,201.8474,158.2636,0,U,40024,999,65197,.62230174E-3,.18591E-3,0
QB50P1,2014-033R,2026-06-03T13:44:21.385536,15.18040602,.00070591,98.0967,164.7661,272.3380,87.7044,0,U,40025,999,65096,.48089613E-3,.9724E-4,0
QB50P2,2014-033Y,2026-06-04T05:18:47.814336,15.14981717,.0006642,98.0753,151.2965,207.6654,152.4224,0,U,40032,999,65070,.40867E-3,.7558E-4,0
PERSEUS-M2,2014-033AD,2026-06-04T18:02:47.138208,14.95476123,.00116248,97.9973,106.0396,350.2628,9.8365,0,U,40037,999,64892,.24528282E-3,.2657E-4,0
